48234,ONEWEB-0199,2021,109.55,148.0,+,87.9,Active,1,LEO,Russia,UK,Commercial,Communications,Soyuz,1 48234U 21031AA  25054.48059216 -.00000194  00000+0 -55884-3 0  9997,2 48234  87.9035  24.8690 0001913  88.3441 271.7908 13.14502492185375,13.14502492,0.0001913,LEO
48235,ONEWEB-0203,2021,109.55,148.0,+,87.9,Active,1,LEO,Russia,UK,Commercial,Communications,Soyuz,1 48235U 21031AB  25054.85166738 -.00000116  00000+0 -34768-3 0  9999,2 48235  87.9036  24.7976 0002211  89.8632 270.2751 13.14502697185437,13.14502697,0.0002211,LEO
48236,ONEWEB-0197,2021,109.55,148.0,+,87.9,Active,1,LEO,Russia,UK,Commercial,Communications,Soyuz,1 48236U 21031AC  25054.44647954  .00000271  00000+0  69551-3 0  9997,2 48236  87.9035  24.8890 0001494  84.4696 275.6604 13.14504190185296,13.1450419,0.0001494,LEO
48237,ONEWEB-0194,2021,109.55,148.0,+,87.9,Active,1,LEO,Russia,UK,Commercial,Communications,Soyuz,1 48237U 21031AD  25054.19673820  .00000112  00000+0  26827-3 0  9994,2 48237  87.9034  24.9336 0002008  90.4623 269.6737 13.14502271185435,13.14502271,0.0002008,LEO
48238,ONEWEB-0193,2021,109.55,148.0,+,87.9,Active,1,LEO,Russia,UK,Commercial,Communications,Soyuz,1 48238U 21031AE  25054.44093690  .00000273  00000+0  70062-3 0  9992,2 48238  87.9037  24.8930 0001996  82.9679 277.1677 13.14504511185414,13.14504511,0.0001996,LEO
48239,ONEWEB-0191,2021,109.55,148.0,+,87.9,Active,1,LEO,Russia,UK,Commercial,Communications,Soyuz,1 48239U 21031AF  25054.45204729  .00000158  00000+0  39093-3 0  9992,2 48239  87.9033  24.8669 0001975  82.0032 278.1322 13.14502106185271,13.14502106,0.0001975,LEO
48240,ONEWEB-0195,2021,109.55,148.0,+,87.9,Active,1,LEO,Russia,UK,Commercial,Communications,Soyuz,1 48240U 21031AG  25054.20070456  .00000166  00000+0  41329-3 0  9999,2 48240  87.9032  24.9150 0002133  73.5087 286.6277 13.14502491185225,13.14502491,0.0002133,LEO
48241,ONEWEB-0201,2021,109.55,148.0,+,87.9,Active,1,LEO,Russia,UK,Commercial,Communications,Soyuz,1 48241U 21031AH  25054.41795888  .00000010  00000+0 -66663-5 0  9995,2 48241  87.9035  24.9145 0001876  78.6950 281.4390 13.14504177185481,13.14504177,0.0001876,LEO
